#VRSS1
1 38782U 12052A   16035.84893017  .00000284  00000-0  45069-4 0  9995
2 38782  97.9229 117.7713 0022614 272.8570  87.0047 14.79353034180791